[Satellite]
VERSION=1.1
NAME=STARLINK-1233
NICKNAME=STARLINK-1233
TLE1=1 45214U 20012AN  20078.25001157  .00562018  00000-0  57487-2 0  9994
TLE2=2 45214  52.9996 121.1741 0006320 267.3830 180.2138 15.62661291  5013
STATUS=0
